IRIDIUM 7 [-]           
1 24793U 97020B   23349.59771788  .00000336  00000+0  11104-3 0  9997
2 24793  86.3967  47.1064 0002363  97.8321 262.3144 14.35008030393058
IRIDIUM 5 [-]           
1 24795U 97020D   23349.78788672  .00004603  00000+0  45952-3 0  9999
2 24795  86.3928 335.0058 0124038 297.0342  61.8265 14.85639418403705
IRIDIUM 4 [-]           
1 24796U 97020E   23349.58300882  .00000289  00000+0  92871-4 0  9990
2 24796  86.3963  44.3554 0002114  98.1189 262.0247 14.35916324393572
IRIDIUM 914 [-]         
1 24836U 97030A   23349.68894832  .00000430  00000+0  13087-3 0  9999
2 24836  86.3941  54.5203 0001415 152.2084 207.9191 14.39744780390130
IRIDIUM 16 [-]          
1 24841U 97030F   23349.60285554  .00000457  00000+0  14580-3 0  9990
2 24841  86.4036  76.0669 0004144  83.3996 276.7674 14.37630321388012
IRIDIUM 911 [-]         
1 24842U 97030G   23349.31180996  .00000588  00000+0  15849-3 0  9997
2 24842  86.4462  75.4699 0016172 125.6641 234.6070 14.46187482395570
IRIDIUM 17 [-]          
1 24870U 97034B   23349.80368814  .00000487  00000+0  15862-3 0  9996
2 24870  86.3957 105.6424 0002820  58.9318 301.2155 14.36722044384677
IRIDIUM 920 [-]         
1 24871U 97034C   23349.31592558  .00000478  00000+0  14408-3 0  9992
2 24871  86.3974  86.3513 0013715  95.1216 265.1549 14.40445735387397
